[{"OBJECT_NAME":"IRIDIUM 111","OBJECT_ID":"2017-003K","EPOCH":"2026-03-09T16:49:02.226144","MEAN_MOTION":14.34218028,"ECCENTRICITY":0.00021015,"INCLINATION":86.3976,"RA_OF_ASC_NODE":129.9805,"ARG_OF_PERICENTER":94.2487,"MEAN_ANOMALY":265.8949,"EPHEMERIS_TYPE":0,"CLASSIFICATION_TYPE":"U","NORAD_CAT_ID":41926,"ELEMENT_SET_NO":999,"REV_AT_EPOCH":47899,"BSTAR":1.777394e-5,"MEAN_MOTION_DOT":7.0e-7,"MEAN_MOTION_DDOT":0},{"OBJECT_NAME":"FENGYUN 1C DEB","OBJECT_ID":"1999-025ABK","EPOCH":"2026-03-09T05:21:27.357984","MEAN_MOTION":14.36154915,"ECCENTRICITY":0.00204506,"INCLINATION":98.8572,"RA_OF_ASC_NODE":170.3285,"ARG_OF_PERICENTER":123.656,"MEAN_ANOMALY":266.7356,"EPHEMERIS_TYPE":0,"CLASSIFICATION_TYPE":"U","NORAD_CAT_ID":30348,"ELEMENT_SET_NO":999,"REV_AT_EPOCH":98775,"BSTAR":0.0020473121,"MEAN_MOTION_DOT":5.939e-5,"MEAN_MOTION_DDOT":0}]
